# From MPEC 2022-S20
C/1995 O1 (Hale-Bopp),e,89.6360,281.9518,130.4254,179.8826,0.0004085,0.99492152,0.0000,03/30.4164/1997,2000,g -2.0,4.0
# From MPEC 2026-C68
C/2024 E1 (Wierzchos),h,01/20.7687/2026,75.2401,108.0795,243.6220,1.000076,0.566125,2000,10.4,4.0
# From NK 1615
P/1996 R2 (Lagerkvist),e,2.5990,40.0371,333.5124,3.771503,0.1345651,0.31406018,343.0776,02/10.0/2026,2000,g 11.5,4.0
# From MPC 73460
C/1997 BA6 (Spacewatch),e,72.6935,317.7910,286.0689,2922,0.0000062,0.99881540,0.0000,11/16.2323/1999,2000,g 10.0,2.0
# From MPC 75703
P/1998 VS24 (LINEAR),e,5.0302,159.0324,244.9396,4.519435,0.1025836,0.24341972,300.9938,02/10.0/2026,2000,g 13.0,2.0
# From MPC 73461
C/1999 F1 (Catalina),e,91.8753,19.9611,255.3253,20259,0.0000003,0.99971308,0.0000,01/31.0895/2002,2000,g  9.5,2.0
# From MPC186628
C/1999 J2 (Skiff),h,04/09.6150/2000,86.4015,50.2630,126.9628,1.000772,7.069883,2000,2.0,4.0
# From NK 731
P/1999 RO28 (LONEOS),e,7.5673,137.8387,231.3638,3.425668,0.1554484,0.67222082,15.9629,02/10.0/2026,2000,g 20.0,2.0
# From MPC 43758
C/1999 S2 (McNaught-Watson),h,11/06.5385/1997,65.6348,74.4447,223.4704,1.002276,6.503069,2000,2.0,4.0
# From MPC 75704
P/1999 XN120 (Catalina),e,5.0297,285.2390,161.4572,4.191555,0.1148527,0.21316734,5.8795,02/10.0/2026,2000,g 13.5,2.0
# From NK 744
P/2000 R2 (LINEAR),e,11.6793,160.2683,176.5818,3.468145,0.1526013,0.53051892,10.6369,02/10.0/2026,2000,g 18.0,4.0
# From MPC 43019
P/2001 H5 (NEAT),e,8.3728,328.6848,224.5818,6.093115,0.0655307,0.59972481,247.6580,02/10.0/2026,2000,g 12.0,4.0
# From MPC 46619
C/2001 M10 (NEAT),e,27.9934,293.9626,5.6020,26.71807,0.0071367,0.79926120,64.3629,02/10.0/2026,2000,g  8.0,4.0
# From MPEC 2015-N31
C/2002 A1 (LINEAR),e,14.0785,81.0445,18.7242,16.04146,0.0153405,0.70975511,135.5645,02/10.0/2026,2000,g 12.5,2.0
# From MPC 89006
C/2002 A2 (LINEAR),e,14.0326,81.0112,19.1194,15.89644,0.0155509,0.70742776,137.3142,02/10.0/2026,2000,g 11.0,2.0
# From MPC 45962
C/2002 B1 (LINEAR),e,51.0299,58.2605,76.0920,9.873966,0.0317663,0.77055272,276.7927,02/10.0/2026,2000,g 11.5,4.0
# From MPC188408
C/2002 CE10 (LINEAR),e,145.3718,147.5645,126.2450,9.765529,0.0322969,0.78949432,266.8402,02/10.0/2026,2000,g 13.0,2.0
# From MPEC 2023-UR6
P/2002 EJ57 (LINEAR),e,4.9913,330.2188,167.3005,6.454433,0.0601059,0.59419665,167.7159,02/10.0/2026,2000,g 12.5,4.0
# From MPEC 2015-N31
C/2002 L9 (NEAT),h,04/02.2022/2004,68.2205,110.4979,231.5824,1.000432,7.073824,2000,8.5,2.0
# From MPC 75007
C/2002 VQ94 (LINEAR),e,70.6154,35.0466,99.8165,187.5906,0.0003836,0.96401392,2.8011,02/10.0/2026,2000,g  9.5,2.0
# From MPC186628
C/2003 A2 (Gleason),e,8.0713,154.4536,346.5600,8538,0.0000012,0.99866903,0.0000,11/08.8701/2003,2000,g  3.5,4.0
# From MPC 51182
C/2003 E1 (NEAT),e,33.4702,137.1238,103.9180,13.77242,0.0192836,0.76209818,155.3805,02/10.0/2026,2000,g 12.5,2.0
# From MPC 50354
P/2003 F2 (NEAT),e,11.5735,358.9645,193.1094,6.555413,0.0587224,0.53599038,134.1269,02/10.0/2026,2000,g 16.5,2.0
# From unp
P/2003 L1 (Scotti),e,9.0460,225.8182,355.0593,6.693926,0.0569092,0.25191133,116.0831,02/10.0/2026,2000,g  9.5,4.0
# From MPC105235
P/2003 T12 (SOHO),e,11.0202,174.5687,219.8058,2.584275,0.2372444,0.77002532,139.1070,02/10.0/2026,2000,g 17.0,4.0
# From MPC 57131
C/2004 B1 (LINEAR),h,02/07.8684/2006,113.9150,273.3319,328.1129,1.000948,1.601057,2000,10.5,2.0
# From MPC 51368
C/2004 C1 (Larsen),e,28.8625,151.9549,315.9683,11.62433,0.0248686,0.62580256,359.9917,03/19.0/2003,2000,g 13.5,2.0
# From MPEC 2022-YN2
P/2004 FY140 (LINEAR),e,2.1628,327.2623,254.3334,4.968385,0.0889982,0.19290593,326.3912,02/10.0/2026,2000,g 12.5,2.0
# From MPC 53304
P/2004 R3 (LINEAR-NEAT),e,12.8056,305.1244,37.0136,4.743775,0.0953933,0.25500948,153.5276,02/10.0/2026,2000,g 14.5,4.0
# From MPC 53465
C/2004 T3 (Siding Spring),e,71.7812,50.3539,259.8462,36263,0.0000001,0.99975437,0.0000,04/04.1007/2003,2000,g  2.5,4.0
# From MPC 75705
P/2004 V5 (LINEAR-Hill),e,19.3289,47.7337,87.1442,8.056512,0.0431006,0.44968855,336.6638,02/10.0/2026,2000,g  8.0,4.0
# From unp
P/2004 V5-A (LINEAR-Hill),e,19.3323,47.7607,87.1091,8.057352,0.0430939,0.44977301,336.6779,02/10.0/2026,2000,g  8.0,4.0
# From MPC 75705
P/2004 V5-B (LINEAR-Hill),e,19.3291,47.7341,87.1487,8.056706,0.0430991,0.44970220,336.6226,02/10.0/2026,2000,g  8.0,4.0
# From MPC 54164
P/2005 E1 (Tubbiolo),e,4.2607,335.4831,193.9743,7.074071,0.0523842,0.37760630,45.3365,02/10.0/2026,2000,g 10.0,4.0
# From MPC 74246
P/2005 L1 (McNaught),e,10.3382,123.7114,167.5345,3.830528,0.1314668,0.28561243,185.0913,02/10.0/2026,2000,g  9.5,4.0
# From MPC 87062
C/2005 L3 (McNaught),e,139.3135,288.7781,46.9628,3885,0.0000041,0.99856487,0.0000,01/14.0277/2008,2000,g  4.0,4.0
# From MPC 75706
P/2005 S2 (Skiff),e,3.1395,161.3258,230.0811,7.980880,0.0437147,0.19816308,312.6883,02/10.0/2026,2000,g  7.5,4.0
# From MPC 73461
P/2005 T3 (Read),e,6.2338,27.6186,7.1852,7.566688,0.0473528,0.17357142,350.8973,02/10.0/2026,2000,g  9.0,4.0
# From MPC 75707
P/2006 HR30 (Siding Spring),e,31.9669,309.7447,117.5298,7.793411,0.0453015,0.84351635,315.9443,02/10.0/2026,2000,g 11.0,4.0
# From MPEC 2022-L66
C/2006 S3 (LONEOS),h,04/16.3944/2012,166.0456,38.5294,140.1273,1.000630,5.117580,2000,2.0,4.0
# From MPC 84315
C/2007 D1 (LINEAR),e,41.5188,170.9791,339.8222,1315,0.0000207,0.99335208,0.0000,06/16.3529/2007,2000,g  3.5,4.0
# From MPEC 2024-GJ3
P/2007 K2 (Gibbs),e,7.5868,188.2887,347.0347,7.404800,0.0489141,0.68707001,342.8783,02/10.0/2026,2000,g 14.0,4.0
# From MPC 73462
P/2007 S1 (Zhao),e,5.9625,141.3204,245.2849,3.819340,0.1320449,0.33762686,161.4925,02/10.0/2026,2000,g 13.0,4.0
# From MPEC 2024-GJ3
C/2007 S2 (Lemmon),e,16.9213,296.1350,210.1514,12.49194,0.0223233,0.55748614,142.0397,02/10.0/2026,2000,g  6.5,4.0
# From MPEC 2024-GJ3
C/2008 E1 (Catalina),e,34.8636,188.8728,270.4310,10.76369,0.0279102,0.55293214,177.9938,02/10.0/2026,2000,g  7.0,4.0
# From MPC 95207
C/2008 S3 (Boattini),h,06/09.3679/2011,162.7417,55.0242,40.1970,1.001877,8.055555,2000,4.0,4.0
# From MPC 75710
P/2008 Y3 (McNaught),e,38.7806,262.8252,238.2009,8.033401,0.0432867,0.44867020,270.6777,02/10.0/2026,2000,g  8.5,4.0
# From MPC 75710
P/2009 B1 (Boattini),e,22.2597,297.1088,129.0284,6.721445,0.0565601,0.63579260,352.0530,02/10.0/2026,2000,g 13.0,4.0
# From MPC 95208
C/2009 F4 (McNaught),e,79.2071,53.5070,260.5031,21761,0.0000003,0.99974827,0.0000,12/25.3716/2011,2000,g  3.0,4.0
# From MPC103843
C/2009 P1 (Garradd),e,106.2232,325.8425,90.4530,10214,0.0000010,0.99984931,0.0000,12/24.1609/2011,2000,g  4.0,4.0
# From MPC 68902
P/2009 Q5 (McNaught),e,40.9474,160.1804,209.1987,7.427503,0.0486900,0.60907114,291.4652,02/10.0/2026,2000,g 10.0,4.0
# From MPC105235
P/2009 WX51 (Catalina),e,9.5981,31.5212,118.2930,3.083040,0.1820687,0.73976180,348.3381,02/10.0/2026,2000,g 19.0,2.0
# From MPC 74247
P/2009 Y2 (Kowalski),e,29.9725,262.0770,172.2795,6.533975,0.0590117,0.63727762,342.6022,02/10.0/2026,2000,g 13.0,4.0
# From MPC 75008
P/2010 C1 (Scotti),e,9.1159,141.5824,2.8723,7.134088,0.0517245,0.26455299,310.6728,02/10.0/2026,2000,g  9.5,4.0
# From MPC 75008
P/2010 D2 (WISE),e,57.1399,319.8802,120.0644,6.712645,0.0566713,0.45152014,330.8266,02/10.0/2026,2000,g 16.0,4.0
# From MPC 72851
P/2010 H2 (Vales),e,14.2779,64.1893,128.0787,3.835426,0.1312151,0.19800254,44.2421,02/10.0/2026,2000,g  6.0,4.0
# From MPC 70361
P/2010 H3 (SOHO),e,23.1392,77.1661,26.0904,3.034474,0.1864571,0.98558073,0.0000,05/25.2487/2026,2000,g 20.0,2.0
# From MPEC 2024-GJ3
P/2010 H4 (Scotti),e,2.3177,44.7495,179.0823,6.620319,0.0578610,0.26745593,333.0640,02/10.0/2026,2000,g 10.5,4.0
# From MPC 74637
P/2010 H5 (Scotti),e,14.0532,24.3572,175.5081,7.167425,0.0513641,0.15667464,298.3220,02/10.0/2026,2000,g 13.0,2.0
# From MPC 84315
P/2010 JC81 (WISE),e,38.7356,30.8303,12.5251,8.103217,0.0427285,0.77782422,230.4664,02/10.0/2026,2000,g  9.0,4.0
# From MPC 83518
C/2010 L3 (Catalina),e,102.6416,38.3171,121.7479,35107,0.0000001,0.99971894,0.0000,11/12.5082/2010,2000,g  4.5,4.0
# From MPC115879
C/2010 S1 (LINEAR),h,05/20.5493/2013,125.4392,93.6700,118.7117,1.000691,5.907490,2000,3.5,4.0
# From MPC 74248
P/2010 T2 (PANSTARRS),e,7.8522,57.6802,349.8067,5.566173,0.0750532,0.32433065,54.1003,02/10.0/2026,2000,g 11.5,4.0
# From MPEC 2023-J95
C/2010 U3 (Boattini),h,02/28.9289/2019,55.5262,42.9949,88.1140,1.000270,8.441226,2000,1.0,4.0
# From MPC 79021
P/2010 UH55 (Spacewatch),e,8.0380,232.7915,225.3836,6.644936,0.0575397,0.56465578,311.4685,02/10.0/2026,2000,g 11.0,4.0
# From MPC 84021
P/2011 C2 (Gibbs),e,10.8987,11.9685,160.3269,7.405661,0.0489056,0.27178197,253.2015,02/10.0/2026,2000,g  9.0,4.0
# From MPC 89309
C/2011 F1 (LINEAR),e,56.3873,85.1952,192.5993,3649,0.0000045,0.99949654,0.0000,01/01.6440/2013,2000,g  5.0,4.0
# From MPC 79866
P/2011 FR143 (Lemmon),e,15.9609,190.8415,349.6022,6.887084,0.0545319,0.45302207,300.7590,02/10.0/2026,2000,g 14.0,2.0
# From MPC106343
C/2011 J2 (LINEAR),h,12/20.5472/2013,122.7976,164.0582,85.4826,1.000319,3.459871,2000,5.5,3.6
# From MPC 82317
P/2011 JB15 (Spacewatch-Boattini),e,19.1281,153.5822,110.6002,7.382680,0.0491341,0.31528501,253.9504,02/10.0/2026,2000,g  9.0,4.0
# From MPEC 2023-J95
C/2011 KP36 (Spacewatch),e,18.9551,173.4082,180.9662,39.37505,0.0039891,0.87489666,14.1547,02/10.0/2026,2000,g  4.5,4.0
# From MPC 87913
P/2011 N1 (ASH),e,35.7823,77.6241,330.5236,6.231073,0.0633665,0.54530435,316.3315,02/10.0/2026,2000,g 11.5,4.0
# From MPEC 2022-ED3
P/2011 P1 (McNaught),e,5.6500,4.2413,349.1290,7.464316,0.0483303,0.32598892,274.1695,02/10.0/2026,2000,g  9.0,4.0
# From MPC107047
C/2011 P2 (PANSTARRS),e,8.9826,203.9300,76.1969,9.765864,0.0322952,0.36527076,182.8245,02/10.0/2026,2000,g  8.5,4.0
# From MPEC 2022-HC2
P/2011 S1 (Gibbs),e,2.6875,218.8977,193.0444,8.601223,0.0390718,0.20039003,163.6354,02/10.0/2026,2000,g  8.0,4.0
# From MPEC 2023-UR6
P/2011 V1 (Boattini),e,7.3822,46.4903,269.5904,3.858239,0.1300530,0.54838293,350.5683,02/10.0/2026,2000,g 15.5,4.0
# From MPC 82718
